      2.10          N: GNSS NAV DATA                        RINEX VERSION / TYPE
fic2rin                                 04/13/2024 00:59:02 PGM / RUN BY / DATE
                                                            END OF HEADER
20 24  4 12  5 59 44.0  .380489975214D-03 -.136424205266D-11  .000000000000D+00
     .900000000000D+01 -.859062500000D+02  .450304471274D-08  .140826795537D+01
    -.460073351860D-05  .367710285354D-02  .940635800362D-05  .515376573753D+04
     .453584000000D+06 -.335276126862D-07 -.251559769702D+01  .558793544769D-07
     .953354118889D+00  .192468750000D+03 -.259806585041D+01 -.797390357366D-08
     .229295265354D-09  .100000000000D+01  .230900000000D+04  .000000000000D+00
     .240000000000D+01  .000000000000D+00 -.838190317154D-08  .900000000000D+01
     .447120000000D+06  .400000000000D+01
25 24  4 12  5 59 44.0  .493567436934D-03  .909494701773D-12  .000000000000D+00
     .100000000000D+01  .924375000000D+02  .455697553061D-08 -.707770734246D+00
     .489316880703D-05  .117916483432D-01  .100638717413D-04  .515359376526D+04
     .453584000000D+06 -.186264514923D-07  .784663610286D+00  .229105353355D-06
     .950927016373D+00  .181343750000D+03  .108799241063D+01 -.815962559544D-08
    -.209294432239D-09  .100000000000D+01  .230900000000D+04  .000000000000D+00
     .240000000000D+01  .000000000000D+00  .558793544769D-08  .100000000000D+01
     .448350000000D+06  .400000000000D+01
9  24  4 12  5 59 44.0  .157407950610D-03  .135287336889D-10  .000000000000D+00
     .350000000000D+02 -.403125000000D+01  .500735143343D-08 -.291234019797D+01
    -.115483999252D-06  .266793428455D-02  .661239027977D-05  .515368021202D+04
     .453584000000D+06  .353902578354D-07 -.131684333035D+01  .763684511185D-07
     .957771528766D+00  .252937500000D+03  .199956845796D+01 -.806105006081D-08
     .408231290186D-09  .100000000000D+01  .230900000000D+04  .000000000000D+00
     .240000000000D+01  .000000000000D+00  .931322574615D-09  .350000000000D+02
     .451620000000D+06  .400000000000D+01
15 24  4 12  5 59 44.0  .147531740367D-03  .409272615798D-11  .000000000000D+00
     .200000000000D+01 -.168750000000D+01  .539308178636D-08  .197215672177D+01
    -.346451997757D-06  .155076711671D-01  .686198472977D-05  .515363004684D+04
     .453584000000D+06  .577419996262D-07 -.144364790644D+01 -.420957803726D-06
     .934566688545D+00  .233125000000D+03  .130082344696D+01 -.817926927082D-08
     .462519265784D-09  .100000000000D+01  .230900000000D+04  .000000000000D+00
     .240000000000D+01  .000000000000D+00 -.107102096081D-07  .200000000000D+01
     .452820000000D+06  .400000000000D+01
15 24  4 12  7 59 44.0  .147560611367D-03  .409272615798D-11  .000000000000D+00
     .300000000000D+01 -.737500000000D+01  .536236622122D-08  .302240783700D+01
    -.556930899620D-06  .155083093559D-01  .689364969730D-05  .515362846184D+04
     .460784000000D+06  .227242708206D-06 -.144370571218D+01 -.210478901863D-06
     .934570350229D+00  .230500000000D+03  .130078639417D+01 -.804676375144D-08
     .450018745087D-09  .100000000000D+01  .230900000000D+04  .000000000000D+00
     .240000000000D+01  .000000000000D+00 -.107102096081D-07  .300000000000D+01
     .453600000000D+06  .400000000000D+01
9  24  4 12  7 59 44.0  .157506205142D-03  .135287336889D-10  .000000000000D+00
     .360000000000D+02 -.231250000000D+01  .502735226654D-08 -.186223003345D+01
    -.186264514923D-07  .266816245858D-02  .674091279507D-05  .515367965698D+04
     .460784000000D+06 -.353902578354D-07 -.131690140673D+01  .894069671631D-07
     .957774300995D+00  .251625000000D+03  .199963896183D+01 -.810319467344D-08
     .409302763389D-09  .100000000000D+01  .230900000000D+04  .000000000000D+00
     .240000000000D+01  .000000000000D+00  .931322574615D-09  .360000000000D+02
     .453600000000D+06  .400000000000D+01
25 24  4 12  7 59 44.0  .493573490530D-03  .909494701773D-12  .000000000000D+00
     .400000000000D+01  .865937500000D+02  .454590364085D-08  .342399834167D+00
     .461563467979D-05  .117912376300D-01  .104494392872D-04  .515359274292D+04
     .460784000000D+06 -.227242708206D-06  .784605498791D+00  .145286321640D-06
     .950925399848D+00  .173218750000D+03  .108805273552D+01 -.810569477758D-08
    -.327156484524D-09  .100000000000D+01  .230900000000D+04  .000000000000D+00
     .240000000000D+01  .000000000000D+00  .558793544769D-08  .400000000000D+01
     .453600000000D+06  .400000000000D+01
20 24  4 12  7 59 44.0  .380480196327D-03 -.136424205266D-11  .000000000000D+00
     .480000000000D+02 -.105531250000D+03  .431160816722D-08  .245769331478D+01
    -.534206628799D-05  .367663672660D-02  .952556729317D-05  .515377055168D+04
     .460784000000D+06 -.707805156708D-07 -.251565519994D+01 -.577419996262D-07
     .953356323506D+00  .190093750000D+03 -.259736926587D+01 -.788068540504D-08
     .285369029623D-09  .100000000000D+01  .230900000000D+04  .000000000000D+00
     .240000000000D+01  .000000000000D+00 -.838190317154D-08  .480000000000D+02
     .453600000000D+06  .400000000000D+01
2  24  4 12  8  0  0.0 -.454747583717D-03  .648014975013D-11  .000000000000D+00
     .470000000000D+02 -.846250000000D+02  .428839291449D-08 -.203971147865D+01
    -.390410423279D-05  .160429609241D-01  .364147126675D-05  .515370692635D+04
     .460800000000D+06  .279396772385D-07  .281299239693D+01  .309199094772D-06
     .967629049680D+00  .309687500000D+03 -.120597834392D+01 -.805283543292D-08
    -.112504686272D-09  .100000000000D+01  .230900000000D+04  .000000000000D+00
     .240000000000D+01  .000000000000D+00 -.176951289177D-07  .470000000000D+02
     .453600000000D+06  .400000000000D+01
3  24  4 12  8  0  0.0  .306123401970D-03  .212594386539D-10  .000000000000D+00
     .390000000000D+02 -.661875000000D+02  .379122934849D-08  .721152366296D+00
    -.364147126675D-05  .531730707735D-02  .106208026409D-04  .515375175858D+04
     .460800000000D+06 -.577419996262D-07 -.233691332939D+01  .204890966415D-07
     .983809598042D+00  .186062500000D+03  .106595941461D+01 -.767246244600D-08
     .362157942475D-09  .100000000000D+01  .230900000000D+04  .000000000000D+00
     .240000000000D+01  .000000000000D+00  .186264514923D-08  .390000000000D+02
     .453600000000D+06  .400000000000D+01
7  24  4 12  8  0  0.0 -.105483923107D-03 -.841282599140D-11  .000000000000D+00
     .450000000000D+02 -.117812500000D+02  .509985528659D-08  .112778662630D+01
    -.489875674248D-06  .183355459012D-01  .875070691109D-05  .515364552307D+04
     .460800000000D+06 -.288709998131D-06 -.244441518565D+00  .126659870148D-06
     .950591807713D+00  .214156250000D+03 -.213460494138D+01 -.836749139675D-08
    -.619668668830D-09  .100000000000D+01  .230900000000D+04  .000000000000D+00
     .240000000000D+01  .000000000000D+00 -.111758708954D-07  .450000000000D+02
     .453600000000D+06  .400000000000D+01
5  24  4 12  8  0  0.0 -.168840400875D-03 -.136424205266D-11  .000000000000D+00
     .800000000000D+02 -.873750000000D+02  .398230873629D-08 -.193807714689D+01
    -.445172190666D-05  .575389619917D-02  .967457890511D-05  .515359886169D+04
     .460800000000D+06  .856816768646D-07 -.238765185903D+01  .279396772385D-07
     .970813738952D+00  .191125000000D+03  .123356891453D+01 -.763638951485D-08
     .402873924173D-09  .100000000000D+01  .230900000000D+04  .000000000000D+00
     .240000000000D+01  .000000000000D+00 -.107102096081D-07  .800000000000D+02
     .453600000000D+06  .400000000000D+01
4  24  4 12  8  0  0.0  .336905010045D-03  .875388650456D-11  .000000000000D+00
     .185000000000D+03 -.118750000000D+01  .487377444084D-08 -.261462506195D+01
    -.838190317154D-07  .279407866765D-02  .657141208649D-05  .515375393867D+04
     .460800000000D+06 -.540167093277D-07 -.125769711206D+01 -.409781932831D-07
     .964232623496D+00  .258718750000D+03 -.294480548811D+01 -.803104881113D-08
     .361086469272D-09  .100000000000D+01  .230900000000D+04  .000000000000D+00
     .240000000000D+01  .000000000000D+00 -.465661287308D-08  .185000000000D+03
     .453600000000D+06  .400000000000D+01
31 24  4 12  8  0  0.0 -.228022690862D-03  .000000000000D+00  .000000000000D+00
     .330000000000D+02 -.158437500000D+02  .493199115151D-08  .265794797500D+00
    -.638887286186D-06  .105021890486D-01  .811554491520D-05  .515370117378D+04
     .460800000000D+06 -.931322574615D-08 -.223143824665D+00  .121071934700D-06
     .954595460470D+00  .218093750000D+03  .668445502318D+00 -.823427156189D-08
    -.563237746827D-09  .100000000000D+01  .230900000000D+04  .000000000000D+00
     .240000000000D+01  .000000000000D+00 -.130385160446D-07  .330000000000D+02
     .453600000000D+06  .400000000000D+01
18 24  4 12  8  0  0.0 -.593021977693D-03 -.670752342558D-11  .000000000000D+00
     .810000000000D+02 -.885937500000D+02  .416588781166D-08  .198372957851D+01
    -.461935997009D-05  .395609624684D-02  .371225178242D-05  .515361643791D+04
     .460800000000D+06 -.745058059692D-08  .291496264979D+01  .391155481339D-07
     .974770986484D+00  .314687500000D+03 -.304000200456D+01 -.806355016494D-08
    -.168578450541D-09  .100000000000D+01  .230900000000D+04  .000000000000D+00
     .240000000000D+01  .000000000000D+00 -.838190317154D-08  .810000000000D+02
     .453600000000D+06  .400000000000D+01
12 24  4 12  8  0  0.0 -.495834741741D-03 -.341060513165D-11  .000000000000D+00
     .930000000000D+02  .978125000000D+02  .419088885306D-08  .401748217489D+00
     .507570803165D-05  .891998631414D-02  .105518847704D-04  .515367976952D+04
     .460800000000D+06 -.195577740669D-06  .870653437593D+00 -.391155481339D-07
     .962950881969D+00  .177500000000D+03  .143741773479D+01 -.793140180329D-08
    -.278583032673D-09  .100000000000D+01  .230900000000D+04  .000000000000D+00
     .240000000000D+01  .000000000000D+00 -.125728547573D-07  .930000000000D+02
     .453600000000D+06  .400000000000D+01
